OBJECT_NAME,OBJECT_ID,EPOCH,MEAN_MOTION,ECCENTRICITY,INCLINATION,RA_OF_ASC_NODE,ARG_OF_PERICENTER,MEAN_ANOMALY,EPHEMERIS_TYPE,CLASSIFICATION_TYPE,NORAD_CAT_ID,ELEMENT_SET_NO,REV_AT_EPOCH,BSTAR,MEAN_MOTION_DOT,MEAN_MOTION_DDOT
IRIDIUM 135,2017-083A,2026-07-17T06:59:51.178848,14.34218067,.00022151,86.3985,309.4317,94.4062,265.7387,0,U,43070,999,44846,.13676646E-4,.58E-6,0
IRIDIUM 138,2017-083B,2026-07-17T05:55:54.934176,14.34219120,.00020609,86.3999,309.1504,92.8202,267.3230,0,U,43071,999,44844,.43166201E-4,.141E-5,0
IRIDIUM 116,2017-083C,2026-07-17T06:50:43.065024,14.34218141,.0002498,86.3985,309.4198,97.5580,262.5899,0,U,43072,999,44848,.37483073E-4,.125E-5,0
IRIDIUM 130,2017-083D,2026-07-17T06:05:03.358176,14.34218427,.00023062,86.3994,309.7114,100.5978,259.5478,0,U,43073,999,44842,.42935166E-4,.14E-5,0
IRIDIUM 151,2017-083E,2026-07-16T19:25:43.204512,14.34218196,.00022594,86.3987,309.6771,95.0471,265.0983,0,U,43074,999,44838,.30524279E-4,.105E-5,0
IRIDIUM 134,2017-083F,2026-07-17T06:23:19.209120,14.34217795,.00022452,86.3990,309.4946,95.7706,264.3746,0,U,43075,999,44841,.7011484E-5,.39E-6,0
IRIDIUM 137,2017-083G,2026-07-17T06:41:35.279520,14.34217951,.0002688,86.3991,309.5829,92.8597,267.2907,0,U,43076,999,44848,.10448388E-4,.49E-6,0
IRIDIUM 141,2017-083H,2026-07-17T06:32:27.147552,14.34217902,.00021784,86.3985,309.4144,93.7356,266.4089,0,U,43077,999,44848,.21552812E-4,.8E-6,0
IRIDIUM 153,2017-083J,2026-07-17T05:23:35.398464,14.34217841,.00021323,86.3959,277.9134,95.2478,264.8961,0,U,43078,999,44958,.11129285E-4,.51E-6,0
IRIDIUM 131,2017-083K,2026-07-17T07:54:39.167136,14.34218109,.00022266,86.3990,309.5786,94.5395,265.6055,0,U,43079,999,44842,.14271476E-4,.6E-6,0
IRIDIUM 144,2018-030A,2026-07-17T03:52:15.348864,14.34218360,.00024002,86.3955,277.8683,96.6450,263.5019,0,U,43249,999,43443,.24428658E-4,.88E-6,0
IRIDIUM 149,2018-030B,2026-07-17T05:41:51.420480,14.34218020,.00022535,86.3955,277.8031,93.4659,266.6795,0,U,43250,999,43446,.17309112E-4,.68E-6,0
IRIDIUM 157,2018-030C,2026-07-17T04:28:47.570016,14.34218501,.00022694,86.3958,277.8784,94.1706,265.9750,0,U,43251,999,43443,.42136092E-4,.138E-5,0
IRIDIUM 140,2018-030D,2026-07-17T04:56:11.629824,14.34218117,.00022516,86.3957,277.8828,95.7254,264.4199,0,U,43252,999,43449,.43063829E-4,.14E-5,0
IRIDIUM 145,2018-030E,2026-07-17T04:37:55.427232,14.34217625,.00025708,86.3956,277.8601,99.6724,260.4762,0,U,43253,999,43442,.28337605E-4,.99E-6,0
IRIDIUM 146,2018-030F,2026-07-17T05:50:59.460000,14.34217605,.00023802,86.3957,277.8512,95.8354,264.3113,0,U,43254,999,43444,.14117027E-4,.59E-6,0
IRIDIUM 148,2018-030G,2026-07-17T05:05:19.627008,14.34218503,.00023401,86.3958,277.9079,92.9846,267.1617,0,U,43255,999,43447,.42982549E-4,.14E-5,0
IRIDIUM 142,2018-030H,2026-07-17T04:19:39.469152,14.34217884,.00024441,86.3954,277.8091,96.1549,263.9925,0,U,43256,999,43443,.11404919E-4,.52E-6,0
IRIDIUM 150,2018-030J,2026-07-17T05:14:27.356352,14.34217456,.00022899,86.3958,277.9106,96.4130,263.7327,0,U,43257,999,43446,.46880877E-4,.151E-5,0
IRIDIUM 143,2018-030K,2026-07-16T18:44:15.525600,14.34217816,.00023437,86.3961,278.1873,96.7905,263.3557,0,U,43258,999,43433,.24699509E-4,.89E-6,0
IRIDIUM 161,2018-047C,2026-07-17T04:32:30.871680,14.43276266,.00022265,86.4460,75.9240,80.7125,279.4328,0,U,43478,999,42946,.38757401E-4,.151E-5,0
IRIDIUM 152,2018-047D,2026-07-17T04:07:46.267392,14.34218441,.00021368,86.3933,75.7924,84.1747,275.9693,0,U,43479,999,42678,.13723552E-4,.58E-6,0
IRIDIUM 147,2018-047E,2026-07-17T04:16:54.276672,14.34217463,.00022751,86.3936,75.7955,88.5088,271.6368,0,U,43480,999,42678,.17947654E-4,.7E-6,0
IRIDIUM 110,2018-047F,2026-07-16T23:24:38.062656,14.34219041,.00020782,86.3939,75.9732,77.6883,282.4545,0,U,43481,999,42674,.44308351E-4,.144E-5,0
IRIDIUM 162,2018-047G,2026-07-17T02:43:36.482880,14.43279058,.00021949,86.4458,75.8462,87.1760,272.9692,0,U,43482,999,42944,.45903646E-4,.175E-5,0
IRIDIUM 160,2018-061A,2026-07-17T06:28:58.435392,14.34217554,.00022252,86.3939,44.2136,86.7783,273.3667,0,U,43569,999,41768,.36632526E-4,.122E-5,0
IRIDIUM 166,2018-061B,2026-07-16T22:43:10.493472,14.34217765,.00022838,86.3938,44.2991,89.8455,270.3003,0,U,43570,999,41766,.8334727E-5,.43E-6,0
IRIDIUM 158,2018-061C,2026-07-16T23:37:58.438560,14.34217889,.00021028,86.3938,44.2926,88.2698,271.8739,0,U,43571,999,41763,.1350543E-4,.58E-6,0
IRIDIUM 165,2018-061D,2026-07-17T00:14:30.575040,14.34217293,.00022777,86.3939,44.3292,90.1879,269.9578,0,U,43572,999,41766,.6931594E-5,.39E-6,0
IRIDIUM 155,2018-061E,2026-07-16T23:19:42.479616,14.34217570,.00021396,86.3937,44.2133,89.6600,270.4841,0,U,43573,999,41762,.9237055E-5,.46E-6,0
